[{"OBJECT_NAME":"BUFENG 1B","OBJECT_ID":"2019-032B","EPOCH":"2026-03-09T19:57:27.457920","MEAN_MOTION":15.25619535,"ECCENTRICITY":0.00242037,"INCLINATION":44.9701,"RA_OF_ASC_NODE":192.0248,"ARG_OF_PERICENTER":123.8847,"MEAN_ANOMALY":236.4342,"EPHEMERIS_TYPE":0,"CLASSIFICATION_TYPE":"U","NORAD_CAT_ID":44311,"ELEMENT_SET_NO":999,"REV_AT_EPOCH":37256,"BSTAR":0.00059375374,"MEAN_MOTION_DOT":0.00015236,"MEAN_MOTION_DDOT":0},{"OBJECT_NAME":"STARLINK-35891","OBJECT_ID":"2025-294R","EPOCH":"2026-03-09T22:29:15.671616","MEAN_MOTION":15.27574617,"ECCENTRICITY":0.00015356,"INCLINATION":43.0028,"RA_OF_ASC_NODE":36.9623,"ARG_OF_PERICENTER":267.3111,"MEAN_ANOMALY":92.7565,"EPHEMERIS_TYPE":0,"CLASSIFICATION_TYPE":"U","NORAD_CAT_ID":67045,"ELEMENT_SET_NO":999,"REV_AT_EPOCH":1483,"BSTAR":0.0013632918,"MEAN_MOTION_DOT":0.00037437,"MEAN_MOTION_DDOT":0}]
